TIANMU-1 12             
1 58646U 23205B   26068.96969023  .00007417  00000+0  29270-3 0  9998
2 58646  97.3538  91.8946 0006738 353.2830   6.8317 15.25812065122376
GEOSCAN 6 (RS92S6)      
1 64879U 25155D   26068.91156483  .00014633  00000+0  53762-3 0  9993
2 64879  97.4466  37.2933 0008767 153.7679 206.4006 15.27985277 65591
